{
  "links" : {
    "next" : "https://api.nasa.gov/neo/rest/v1/feed?start_date=2008-12-09&end_date=2008-12-09&detailed=true&api_key=t0TVs3DtDT2H8Oy2Zy8m2eVrNsAVKAexjcZXUckd",
    "prev" : "https://api.nasa.gov/neo/rest/v1/feed?start_date=2008-12-07&end_date=2008-12-07&detailed=true&api_key=t0TVs3DtDT2H8Oy2Zy8m2eVrNsAVKAexjcZXUckd",
    "self" : "https://api.nasa.gov/neo/rest/v1/feed?start_date=2008-12-08&end_date=2008-12-08&detailed=true&api_key=t0TVs3DtDT2H8Oy2Zy8m2eVrNsAVKAexjcZXUckd"
  },
  "element_count" : 5,
  "near_earth_objects" : {
    "2008-12-08" : [ {
      "links" : {
        "self" : "https://api.nasa.gov/neo/rest/v1/neo/3429846?api_key=t0TVs3DtDT2H8Oy2Zy8m2eVrNsAVKAexjcZXUckd"
      },
      "neo_reference_id" : "3429846",
      "name" : "(2008 TQ2)",
      "nasa_jpl_url" : "http://ssd.jpl.nasa.gov/sbdb.cgi?sstr=3429846",
      "absolute_magnitude_h" : 20.8,
      "estimated_diameter" : {
        "kilometers" : {
          "estimated_diameter_min" : 0.1838886721,
          "estimated_diameter_max" : 0.411187571
        },
        "meters" : {
          "estimated_diameter_min" : 183.8886720703,
          "estimated_diameter_max" : 411.1875710413
        },
        "miles" : {
          "estimated_diameter_min" : 0.1142630881,
          "estimated_diameter_max" : 0.2555000322
        },
        "feet" : {
          "estimated_diameter_min" : 603.309310875,
          "estimated_diameter_max" : 1349.040630575
        }
      },
      "is_potentially_hazardous_asteroid" : false,
      "close_approach_data" : [ {
        "close_approach_date" : "2008-12-08",
        "epoch_date_close_approach" : 1228723200000,
        "relative_velocity" : {
          "kilometers_per_second" : "8.9205056054",
          "kilometers_per_hour" : "32113.8201793311",
          "miles_per_hour" : "19954.2789886516"
        },
        "miss_distance" : {
          "astronomical" : "0.2133372644",
          "lunar" : "82.9881896973",
          "kilometers" : "31914800",
          "miles" : "19830938"
        },
        "orbiting_body" : "Earth"
      } ],
      "orbital_data" : {
        "orbit_id" : "47",
        "orbit_determination_date" : "2017-04-06 09:02:41",
        "orbit_uncertainty" : "0",
        "minimum_orbit_intersection" : ".10312",
        "jupiter_tisserand_invariant" : "3.900",
        "epoch_osculation" : "2458000.5",
        "eccentricity" : ".420007827808883",
        "semi_major_axis" : "1.843694585898946",
        "inclination" : "3.87815682581513",
        "ascending_node_longitude" : "225.5252117574918",
        "orbital_period" : "914.3909044014853",
        "perihelion_distance" : "1.069328427732532",
        "perihelion_argument" : "235.1178280436753",
        "aphelion_distance" : "2.618060744065361",
        "perihelion_time" : "2457566.798128212633",
        "mean_anomaly" : "170.7504668866418",
        "mean_motion" : ".3937047036088335",
        "equinox" : "J2000"
      }
    }, {
      "links" : {
        "self" : "https://api.nasa.gov/neo/rest/v1/neo/3552575?api_key=t0TVs3DtDT2H8Oy2Zy8m2eVrNsAVKAexjcZXUckd"
      },
      "neo_reference_id" : "3552575",
      "name" : "(2010 WG3)",
      "nasa_jpl_url" : "http://ssd.jpl.nasa.gov/sbdb.cgi?sstr=3552575",
      "absolute_magnitude_h" : 22.8,
      "estimated_diameter" : {
        "kilometers" : {
          "estimated_diameter_min" : 0.0732073989,
          "estimated_diameter_max" : 0.1636967205
        },
        "meters" : {
          "estimated_diameter_min" : 73.2073989347,
          "estimated_diameter_max" : 163.696720474
        },
        "miles" : {
          "estimated_diameter_min" : 0.0454889547,
          "estimated_diameter_max" : 0.1017163949
        },
        "feet" : {
          "estimated_diameter_min" : 240.181762721,
          "estimated_diameter_max" : 537.0627483999
        }
      },
      "is_potentially_hazardous_asteroid" : false,
      "close_approach_data" : [ {
        "close_approach_date" : "2008-12-08",
        "epoch_date_close_approach" : 1228723200000,
        "relative_velocity" : {
          "kilometers_per_second" : "7.7365064806",
          "kilometers_per_hour" : "27851.423330011",
          "miles_per_hour" : "17305.7913463616"
        },
        "miss_distance" : {
          "astronomical" : "0.1656814276",
          "lunar" : "64.4500732422",
          "kilometers" : "24785588",
          "miles" : "15401050"
        },
        "orbiting_body" : "Earth"
      } ],
      "orbital_data" : {
        "orbit_id" : "19",
        "orbit_determination_date" : "2017-04-06 08:55:35",
        "orbit_uncertainty" : "2",
        "minimum_orbit_intersection" : ".114154",
        "jupiter_tisserand_invariant" : "6.006",
        "epoch_osculation" : "2458000.5",
        "eccentricity" : ".1461204565367979",
        "semi_major_axis" : "1.00857561475492",
        "inclination" : "13.50336476793248",
        "ascending_node_longitude" : "71.56159720570867",
        "orbital_period" : "369.965410677445",
        "perihelion_distance" : ".8612020854750492",
        "perihelion_argument" : "217.6666580845203",
        "aphelion_distance" : "1.15594914403479",
        "perihelion_time" : "2457989.607244070272",
        "mean_anomaly" : "10.59934799721298",
        "mean_motion" : ".9730639395201909",
        "equinox" : "J2000"
      }
    }, {
      "links" : {
        "self" : "https://api.nasa.gov/neo/rest/v1/neo/3619158?api_key=t0TVs3DtDT2H8Oy2Zy8m2eVrNsAVKAexjcZXUckd"
      },
      "neo_reference_id" : "3619158",
      "name" : "(2012 XB)",
      "nasa_jpl_url" : "http://ssd.jpl.nasa.gov/sbdb.cgi?sstr=3619158",
      "absolute_magnitude_h" : 26.0,
      "estimated_diameter" : {
        "kilometers" : {
          "estimated_diameter_min" : 0.0167708462,
          "estimated_diameter_max" : 0.0375007522
        },
        "meters" : {
          "estimated_diameter_min" : 16.7708462163,
          "estimated_diameter_max" : 37.5007521798
        },
        "miles" : {
          "estimated_diameter_min" : 0.0104209175,
          "estimated_diameter_max" : 0.0233018799
        },
        "feet" : {
          "estimated_diameter_min" : 55.0224631002,
          "estimated_diameter_max" : 123.0339677816
        }
      },
      "is_potentially_hazardous_asteroid" : false,
      "close_approach_data" : [ {
        "close_approach_date" : "2008-12-08",
        "epoch_date_close_approach" : 1228723200000,
        "relative_velocity" : {
          "kilometers_per_second" : "14.0997499381",
          "kilometers_per_hour" : "50759.0997771866",
          "miles_per_hour" : "31539.7306365524"
        },
        "miss_distance" : {
          "astronomical" : "0.4126964331",
          "lunar" : "160.5389099121",
          "kilometers" : "61738508",
          "miles" : "38362528"
        },
        "orbiting_body" : "Earth"
      } ],
      "orbital_data" : {
        "orbit_id" : "7",
        "orbit_determination_date" : "2017-04-06 08:47:51",
        "orbit_uncertainty" : "7",
        "minimum_orbit_intersection" : ".0494207",
        "jupiter_tisserand_invariant" : "5.274",
        "epoch_osculation" : "2458000.5",
        "eccentricity" : ".1400031834480249",
        "semi_major_axis" : "1.198493995862298",
        "inclination" : "11.3140218650618",
        "ascending_node_longitude" : "250.1217565997544",
        "orbital_period" : "479.2390745995835",
        "perihelion_distance" : "1.030701021098232",
        "perihelion_argument" : "164.3098074072296",
        "aphelion_distance" : "1.366286970626364",
        "perihelion_time" : "2458165.356043588722",
        "mean_anomaly" : "236.1616511726909",
        "mean_motion" : ".7511908337207044",
        "equinox" : "J2000"
      }
    } ]
  }
}